STARLINK-30227          
1 57505U 23113L   26068.22529593  .00032605  00000+0  15711-2 0  9993
2 57505  43.0053   4.8681 0002789 225.8359 134.2260 15.18160462143769
AC1-002                 
1 66745U 25276CH  26068.70421404  .00003369  00000+0  16927-3 0  9992
2 66745  97.4267 143.9072 0002089  20.2082 339.9235 15.17945166 15313
